NORAD_CAT_ID,OBJECT_NAME,OBJECT_TYPE,EPOCH,MEAN_MOTION,ECCENTRICITY,INCLINATION,RA_OF_ASC_NODE,ARG_OF_PERICENTER,MEAN_ANOMALY,BSTAR,MEAN_MOTION_DOT,MEAN_MOTION_DDOT,TLE_LINE0,TLE_LINE1,TLE_LINE2,SEMIMAJOR_AXIS,PERIOD,APOGEE,PERIGEE,DECAYED
49746.0,STARLINK-3233,PAYLOAD,2024-07-05 18:52:02,15.08850227,4.37e-05,53.2165,16.0647,77.6901,282.414,4.055e-05,3.58e-06,0.0,0 STARLINK-3233,1 49746U 21115Y   24187.78614419  .00000358  00000-0  40550-4 0  9996,2 49746  53.2165  16.0647 0000437  77.6901 282.4140 15.08850227144268,6917.849,95.437,540.016,539.412,0.0
49746.0,STARLINK-3233,PAYLOAD,2024-07-06 12:21:17,15.08847033,0.0002444,53.217,12.7935,79.6987,280.428,0.00054244,8.357e-05,0.0,0 STARLINK-3233,1 49746U 21115Y   24188.51478923  .00008357  00000-0  54244-3 0  9997,2 49746  53.2170  12.7935 0002444  79.6987 280.4280 15.08847033144379,6917.859,95.437,541.415,538.033,0.0
49746.0,STARLINK-3233,PAYLOAD,2024-07-06 18:42:50,15.08822705,6.11e-05,53.2168,11.6038,80.0988,280.0074,2.6177e-05,1.29e-06,0.0,0 STARLINK-3233,1 49746U 21115Y   24188.77975091  .00000129  00000-0  26177-4 0  9997,2 49746  53.2168  11.6038 0000611  80.0988 280.0074 15.08822705144410,6917.933,95.439,540.221,539.376,0.0
49746.0,STARLINK-3233,PAYLOAD,2024-07-07 05:50:32,15.08830907,8.11e-05,53.2188,9.5211,98.4806,261.6278,0.00071289,0.00011073,0.0,0 STARLINK-3233,1 49746U 21115Y   24189.24343606  .00011073  00000-0  71289-3 0  9994,2 49746  53.2188   9.5211 0000811  98.4806 261.6278 15.08830907143373,6917.908,95.438,540.334,539.212,0.0
49746.0,STARLINK-3233,PAYLOAD,2024-07-07 18:33:37,15.08863608,6.52e-05,53.2179,7.1434,71.6439,288.4624,0.0014233,0.00022451,0.0,0 STARLINK-3233,1 49746U 21115Y   24189.77335115  .00022451  00000-0  14233-2 0  9995,2 49746  53.2179   7.1434 0000652  71.6439 288.4624 15.08863608144560,6917.808,95.436,540.124,539.222,0.0
49746.0,STARLINK-3233,PAYLOAD,2024-07-08 18:24:24,15.08845795,4.97e-05,53.2182,2.6825,97.7277,262.3772,8.3319e-05,1.039e-05,0.0,0 STARLINK-3233,1 49746U 21115Y   24190.76694529  .00001039  00000-0  83319-4 0  9995,2 49746  53.2182   2.6825 0000497  97.7277 262.3772 15.08845795144713,6917.863,95.437,540.071,539.384,0.0
49746.0,STARLINK-3233,PAYLOAD,2024-07-08 21:35:10,15.08850497,5e-05,53.2184,2.0875,102.4238,257.681,0.00042957,6.557e-05,0.0,0 STARLINK-3233,1 49746U 21115Y   24190.89942534  .00006557  00000-0  42957-3 0  9993,2 49746  53.2184   2.0875 0000500 102.4238 257.6810 15.08850497143624,6917.848,95.437,540.059,539.367,0.0
49746.0,STARLINK-3233,PAYLOAD,2024-07-09 11:53:38,15.0883995,0.0001827,53.2194,359.4157,121.1713,238.9458,0.0006382,9.884e-05,0.0,0 STARLINK-3233,1 49746U 21115Y   24191.49558993  .00009884  00000-0  63820-3 0  9990,2 49746  53.2194 359.4157 0001827 121.1713 238.9458 15.08839950143717,6917.881,95.438,541.009,538.482,0.0
49746.0,STARLINK-3233,PAYLOAD,2024-07-09 18:15:11,15.08835452,6.85e-05,53.2184,358.2221,87.2494,272.8576,0.00072532,0.00011273,0.0,0 STARLINK-3233,1 49746U 21115Y   24191.76055263  .00011273  00000-0  72532-3 0  9997,2 49746  53.2184 358.2221 0000685  87.2494 272.8576 15.08835452144862,6917.894,95.438,540.233,539.285,0.0
49746.0,STARLINK-3233,PAYLOAD,2024-07-10 03:47:30,15.08848802,7.01e-05,53.2187,356.4388,94.5789,265.5283,0.00088933,0.00013898,0.0,0 STARLINK-3233,1 49746U 21115Y   24192.15799127  .00013898  00000-0  88933-3 0  9992,2 49746  53.2187 356.4388 0000701  94.5789 265.5283 15.08848802143817,6917.853,95.437,540.203,539.234,0.0
49746.0,STARLINK-3233,PAYLOAD,2024-07-10 21:16:44,15.08853546,8.4e-06,53.2182,353.167,119.3029,240.7971,0.00091433,0.00014299,0.0,0 STARLINK-3233,1 49746U 21115Y   24192.88662926  .00014299  00000-0  91433-3 0  9993,2 49746  53.2182 353.1670 0000084 119.3029 240.7971 15.08853546143929,6917.839,95.437,539.762,539.646,0.0
49746.0,STARLINK-3233,PAYLOAD,2024-07-11 14:45:59,15.08840884,0.0001648,53.2176,349.8919,23.5144,336.5923,0.00054067,8.327e-05,0.0,0 STARLINK-3233,1 49746U 21115Y   24193.61527745  .00008327  00000-0  54067-3 0  9991,2 49746  53.2176 349.8919 0001648  23.5144 336.5923 15.08840884144036,6917.878,95.437,540.883,538.603,0.0
49746.0,STARLINK-3233,PAYLOAD,2024-07-11 19:32:09,15.08840108,7.34e-05,53.2181,349.0029,71.8811,288.2261,0.00026546,3.94e-05,0.0,0 STARLINK-3233,1 49746U 21115Y   24193.81399513  .00003940  00000-0  26546-3 0  9990,2 49746  53.2181 349.0029 0000734  71.8811 288.2261 15.08840108144068,6917.88,95.438,540.253,539.237,0.0
49746.0,STARLINK-3233,PAYLOAD,2024-07-12 03:29:04,15.08853825,7.77e-05,53.2198,347.5168,72.7419,287.3658,0.0004251,6.487e-05,0.0,0 STARLINK-3233,1 49746U 21115Y   24194.14519009  .00006487  00000-0  42510-3 0  9999,2 49746  53.2198 347.5168 0000777  72.7419 287.3658 15.08853825145223,6917.838,95.437,540.241,539.166,0.0
49746.0,STARLINK-3233,PAYLOAD,2024-07-12 14:36:46,15.08839969,0.0001345,53.2169,345.4329,75.6181,284.496,0.00011696,1.574e-05,0.0,0 STARLINK-3233,1 49746U 21115Y   24194.60887679  .00001574  00000-0  11696-3 0  9994,2 49746  53.2169 345.4329 0001345  75.6181 284.4960 15.08839969144188,6917.88,95.438,540.676,538.815,0.0
49746.0,STARLINK-3233,PAYLOAD,2024-07-12 17:47:33,15.08840982,6.87e-05,53.2169,344.8417,78.8219,281.2851,0.00020938,3.046e-05,0.0,0 STARLINK-3233,1 49746U 21115Y   24194.74135580  .00003046  00000-0  20938-3 0  9991,2 49746  53.2169 344.8417 0000687  78.8219 281.2851 15.08840982145311,6917.877,95.437,540.218,539.267,0.0
49746.0,STARLINK-3233,PAYLOAD,2024-07-13 09:41:24,15.08827148,5.67e-05,53.2185,341.8669,100.8362,259.2694,-0.00024101,-4.12e-05,0.0,0 STARLINK-3233,1 49746U 21115Y   24195.40375705 -.00004120  00000-0 -24101-3 0  9992,2 49746  53.2185 341.8669 0000567 100.8362 259.2694 15.08827148145417,6917.92,95.438,540.177,539.392,0.0
49746.0,STARLINK-3233,PAYLOAD,2024-07-13 14:27:34,15.08838639,0.0001551,53.2166,340.9734,92.366,267.751,0.00018625,2.677e-05,0.0,0 STARLINK-3233,1 49746U 21115Y   24195.60247904  .00002677  00000-0  18625-3 0  9990,2 49746  53.2166 340.9734 0001551  92.3660 267.7510 15.08838639144337,6917.885,95.438,540.823,538.677,0.0
49746.0,STARLINK-3233,PAYLOAD,2024-07-13 16:02:57,15.0883605,4.65e-05,53.2173,340.68,78.7873,281.3171,5.2255e-05,5.44e-06,0.0,0 STARLINK-3233,1 49746U 21115Y   24195.66871745  .00000544  00000-0  52255-4 0  9991,2 49746  53.2173 340.6800 0000465  78.7873 281.3171 15.08836050144344,6917.892,95.438,540.079,539.436,0.0
49746.0,STARLINK-3233,PAYLOAD,2024-07-14 03:10:38,15.08850142,6.71e-05,53.2174,338.5972,96.1116,263.9952,0.00069436,0.00010783,0.0,0 STARLINK-3233,1 49746U 21115Y   24196.13239558  .00010783  00000-0  69436-3 0  9998,2 49746  53.2174 338.5972 0000671  96.1116 263.9952 15.08850142145526,6917.849,95.437,540.179,539.25,0.0
49746.0,STARLINK-3233,PAYLOAD,2024-07-14 12:42:58,15.08847208,0.0001193,53.2182,336.8111,121.4134,238.6975,0.00061964,9.589e-05,0.0,0 STARLINK-3233,1 49746U 21115Y   24196.52983800  .00009589  00000-0  61964-3 0  9997,2 49746  53.2182 336.8111 0001193 121.4134 238.6975 15.08847208145582,6917.858,95.437,540.549,538.898,0.0
49746.0,STARLINK-3233,PAYLOAD,2024-07-14 14:18:21,15.08848109,0.0001178,53.2172,336.5129,130.4153,229.6942,0.00049393,7.583e-05,0.0,0 STARLINK-3233,1 49746U 21115Y   24196.59607658  .00007583  00000-0  49393-3 0  9992,2 49746  53.2172 336.5129 0001178 130.4153 229.6942 15.08848109144484,6917.856,95.437,540.536,538.906,0.0
49746.0,STARLINK-3233,PAYLOAD,2024-07-14 15:53:44,15.08843493,9.78e-05,53.2187,336.218,118.0055,242.1036,0.0003736,5.664e-05,0.0,0 STARLINK-3233,1 49746U 21115Y   24196.66231820  .00005664  00000-0  37360-3 0  9993,2 49746  53.2187 336.2180 0000978 118.0055 242.1036 15.08843493144490,6917.87,95.437,540.411,539.058,0.0
49746.0,STARLINK-3233,PAYLOAD,2024-07-15 12:33:45,15.08839932,0.0001037,53.2177,332.3511,112.5227,247.5875,0.00011539,1.549e-05,0.0,0 STARLINK-3233,1 49746U 21115Y   24197.52343907  .00001549  00000-0  11539-3 0  9997,2 49746  53.2177 332.3511 0001037 112.5227 247.5875 15.08839932145732,6917.881,95.438,540.463,539.028,0.0
49746.0,STARLINK-3233,PAYLOAD,2024-07-15 14:09:08,15.08837972,9.79e-05,53.2176,332.0538,112.2889,247.8207,0.00013088,1.796e-05,0.0,0 STARLINK-3233,1 49746U 21115Y   24197.58968022  .00001796  00000-0  13088-3 0  9999,2 49746  53.2176 332.0538 0000979 112.2889 247.8207 15.08837972144634,6917.887,95.438,540.429,539.074,0.0
49746.0,STARLINK-3233,PAYLOAD,2024-07-15 15:44:31,15.08836013,5.08e-05,53.2181,331.7581,85.2661,274.8389,0.00018228,2.614e-05,0.0,0 STARLINK-3233,1 49746U 21115Y   24197.65592282  .00002614  00000-0  18228-3 0  9999,2 49746  53.2181 331.7581 0000508  85.2661 274.8389 15.08836013144646,6917.893,95.438,540.109,539.406,0.0
49746.0,STARLINK-3233,PAYLOAD,2024-07-16 13:59:55,15.0883952,7.95e-05,53.2169,327.591,101.4496,258.6585,7.083e-05,8.4e-06,0.0,0 STARLINK-3233,1 49746U 21115Y   24198.58328033  .00000840  00000-0  70830-4 0  9990,2 49746  53.2169 327.5910 0000795 101.4496 258.6585 15.08839520144785,6917.882,95.438,540.297,539.197,0.0
49746.0,STARLINK-3233,PAYLOAD,2024-07-16 15:35:18,15.08842511,6.86e-05,53.2171,327.2948,105.2389,254.8679,0.00010147,1.328e-05,0.0,0 STARLINK-3233,1 49746U 21115Y   24198.64951859  .00001328  00000-0  10147-3 0  9991,2 49746  53.2171 327.2948 0000686 105.2389 254.8679 15.08842511145909,6917.873,95.437,540.212,539.263,0.0
49746.0,STARLINK-3233,PAYLOAD,2024-07-17 12:15:19,15.08834873,7.5e-05,53.2178,323.4297,82.5404,277.5673,5.4184e-05,5.75e-06,0.0,0 STARLINK-3233,1 49746U 21115Y   24199.51064388  .00000575  00000-0  54184-4 0  9993,2 49746  53.2178 323.4297 0000750  82.5404 277.5673 15.08834873146031,6917.896,95.438,540.28,539.242,0.0
49746.0,STARLINK-3233,PAYLOAD,2024-07-17 15:26:05,15.08833144,8.21e-05,53.2185,322.8397,98.7906,261.3179,5.0103e-05,5.1e-06,0.0,0 STARLINK-3233,1 49746U 21115Y   24199.64312491  .00000510  00000-0  50103-4 0  9994,2 49746  53.2185 322.8397 0000821  98.7906 261.3179 15.08833144144948,6917.901,95.438,540.334,539.198,0.0
